NORAD_CAT_ID,OBJECT_NAME,OBJECT_TYPE,EPOCH,MEAN_MOTION,ECCENTRICITY,INCLINATION,RA_OF_ASC_NODE,ARG_OF_PERICENTER,MEAN_ANOMALY,BSTAR,MEAN_MOTION_DOT,MEAN_MOTION_DDOT,TLE_LINE0,TLE_LINE1,TLE_LINE2,SEMIMAJOR_AXIS,PERIOD,APOGEE,PERIGEE,DECAYED
52619.0,STARLINK-3741,PAYLOAD,2022-11-02 10:05:45,15.088355599999998,0.0002582,53.2181,0.5977,24.4564,335.655,0.00016374,2.318e-05,0.0,0 STARLINK-3741,1 52619U 22052X   22306.42066599  .00002318  00000-0  16374-3 0  9996,2 52619  53.2181   0.5977 0002582  24.4564 335.6550 15.08835560 26315,6917.894,95.438,541.545,537.9730000000002,0.0
52619.0,STARLINK-3741,PAYLOAD,2022-11-02 13:16:32,15.08831026,0.0002233,53.2192,0.0026,30.6804,329.4319,4.965800000000001e-05,5.02e-06,0.0,0 STARLINK-3741,1 52619U 22052X   22306.55315129  .00000502  00000-0  49658-4 0  9991,2 52619  53.2192   0.0026 0002233  30.6804 329.4319 15.08831026 26335,6917.908,95.438,541.318,538.2280000000002,0.0
52619.0,STARLINK-3741,PAYLOAD,2022-11-03 09:56:32,15.08840229,0.0002194,53.2191,356.1365,33.0157,327.0972,0.00016169,2.286e-05,0.0,0 STARLINK-3741,1 52619U 22052X   22307.41426820  .00002286  00000-0  16169-3 0  9999,2 52619  53.2191 356.1365 0002194  33.0157 327.0972 15.08840229 26849,6917.88,95.438,541.262,538.227,0.0
52619.0,STARLINK-3741,PAYLOAD,2022-11-03 13:07:19,15.08845483,0.0002285,53.2188,355.5423,34.1724,325.9414,0.00027186,4.042e-05,0.0,0 STARLINK-3741,1 52619U 22052X   22307.54674815  .00004042  00000-0  27186-3 0  9995,2 52619  53.2188 355.5423 0002285  34.1724 325.9414 15.08845483 26481,6917.864000000001,95.437,541.309,538.148,0.0
52619.0,STARLINK-3741,PAYLOAD,2022-11-04 03:25:46,15.08862223,0.0002366,53.2184,352.8653,30.0269,330.0859,0.00048595,7.459e-05,0.0,0 STARLINK-3741,1 52619U 22052X   22308.14289617  .00007459  00000-0  48595-3 0  9996,2 52619  53.2184 352.8653 0002366  30.0269 330.0859 15.08862223 26954,6917.812,95.436,541.314,538.0409999999998,0.0
52619.0,STARLINK-3741,PAYLOAD,2022-11-04 09:47:18,15.08857824,0.0002299,53.2183,351.6753,32.1515,327.9617,0.00032256,4.852e-05,0.0,0 STARLINK-3741,1 52619U 22052X   22308.40785747  .00004852  00000-0  32256-3 0  9991,2 52619  53.2183 351.6753 0002299  32.1515 327.9617 15.08857824 26995,6917.826,95.436,541.281,538.101,0.0
52619.0,STARLINK-3741,PAYLOAD,2022-11-04 12:58:05,15.08856554,0.0002389,53.2178,351.081,27.9755,332.1365,0.0002617,3.881e-05,0.0,0 STARLINK-3741,1 52619U 22052X   22308.54033635  .00003881  00000-0  26170-3 0  9997,2 52619  53.2178 351.0810 0002389  27.9755 332.1365 15.08856554 26633,6917.83,95.437,541.347,538.0419999999998,0.0
52619.0,STARLINK-3741,PAYLOAD,2022-11-05 03:16:33,15.08848936,0.0002346,53.2194,348.4052,32.4869,327.6267,9.8392e-05,1.278e-05,0.0,0 STARLINK-3741,1 52619U 22052X   22309.13649751  .00001278  00000-0  98392-4 0  9999,2 52619  53.2194 348.4052 0002346  32.4869 327.6267 15.08848936 27107,6917.853,95.437,541.341,538.095,0.0
52619.0,STARLINK-3741,PAYLOAD,2022-11-05 11:13:29,15.08820414,0.0002378,53.2183,346.9172,22.9739,337.1359,-0.000488,-8.043e-05,0.0,0 STARLINK-3741,1 52619U 22052X   22309.46770693 -.00008043  00000-0 -48800-3 0  9992,2 52619  53.2183 346.9172 0002378  22.9739 337.1359 15.08820414 27150,6917.94,95.439,541.45,538.16,0.0
52619.0,STARLINK-3741,PAYLOAD,2022-11-05 12:48:53,15.08820615,0.0002353,53.2186,346.6211,27.0057,333.1057,-0.00043982,-7.278e-05,0.0,0 STARLINK-3741,1 52619U 22052X   22309.53394890 -.00007278  00000-0 -43982-3 0  9996,2 52619  53.2186 346.6211 0002353  27.0057 333.1057 15.08820615 26788,6917.94,95.439,541.432,538.177,0.0
52619.0,STARLINK-3741,PAYLOAD,2022-11-05 19:10:25,15.08825259,0.0002312,53.2185,345.4329,27.814,332.2975,-0.00024963,-4.258e-05,0.0,0 STARLINK-3741,1 52619U 22052X   22309.79890941 -.00004258  00000-0 -24963-3 0  9995,2 52619  53.2185 345.4329 0002312  27.8140 332.2975 15.08825259 26823,6917.925,95.438,541.39,538.191,0.0
52619.0,STARLINK-3741,PAYLOAD,2022-11-06 01:31:58,15.08820863,0.000233,53.2184,344.2431,25.2138,334.8968,-4.88e-05,-1.064e-05,0.0,0 STARLINK-3741,1 52619U 22052X   22310.06387305 -.00001064  00000-0 -48800-4 0  9991,2 52619  53.2184 344.2431 0002330  25.2138 334.8968 15.08820863 27245,6917.939,95.439,541.4159999999998,538.192,0.0
52619.0,STARLINK-3741,PAYLOAD,2022-11-06 09:28:54,15.08833126,0.000237,53.2185,342.7568,27.5471,332.5646,0.00086846,0.00013558,0.0,0 STARLINK-3741,1 52619U 22052X   22310.39507650  .00013558  00000-0  86846-3 0  9994,2 52619  53.2185 342.7568 0002370  27.5471 332.5646 15.08833126 27298,6917.901,95.438,541.406,538.127,0.0
52619.0,STARLINK-3741,PAYLOAD,2022-11-06 11:04:17,15.08836839,0.0002408,53.2183,342.4599,27.7801,332.332,0.0011837999999999,0.00018601,0.0,0 STARLINK-3741,1 52619U 22052X   22310.46131723  .00018601  00000-0  11838-2 0  9998,2 52619  53.2183 342.4599 0002408  27.7801 332.3320 15.08836839 26928,6917.89,95.438,541.4209999999998,538.089,0.0
52619.0,STARLINK-3741,PAYLOAD,2022-11-06 19:01:13,15.08835182,0.0002403,53.2181,340.9721,29.4354,330.6773,0.00056298,8.682e-05,0.0,0 STARLINK-3741,1 52619U 22052X   22310.79251961  .00008682  00000-0  56298-3 0  9999,2 52619  53.2181 340.9721 0002403  29.4354 330.6773 15.08835182 27354,6917.895,95.438,541.422,538.0980000000002,0.0
52619.0,STARLINK-3741,PAYLOAD,2022-11-07 18:52:01,15.08840067,0.0002408,53.2178,336.5122,29.3249,330.7877,0.00037874,5.745e-05,0.0,0 STARLINK-3741,1 52619U 22052X   22311.78612319  .00005745  00000-0  37874-3 0  9993,2 52619  53.2178 336.5122 0002408  29.3249 330.7877 15.08840067 27504,6917.88,95.438,541.411,538.0790000000002,0.0
52619.0,STARLINK-3741,PAYLOAD,2022-11-08 02:48:56,15.08854906,0.0002246,53.2175,335.0255,27.8982,332.213,0.0008466,0.00013217,0.0,0 STARLINK-3741,1 52619U 22052X   22312.11731885  .00013217  00000-0  84660-3 0  9999,2 52619  53.2175 335.0255 0002246  27.8982 332.2130 15.08854906 27550,6917.835,95.437,541.254,538.146,0.0
52619.0,STARLINK-3741,PAYLOAD,2022-11-08 09:10:28,15.08838182,0.0002421,53.2175,333.8357,29.1931,330.9196,0.0003707,5.616e-05,0.0,0 STARLINK-3741,1 52619U 22052X   22312.38227993  .00005616  00000-0  37070-3 0  9995,2 52619  53.2175 333.8357 0002421  29.1931 330.9196 15.08838182 27592,6917.886,95.438,541.4259999999998,538.076,0.0
52619.0,STARLINK-3741,PAYLOAD,2022-11-08 18:42:47,15.0884358,0.0002441,53.2178,332.0507,30.5841,329.5293,9.0999e-05,1.16e-05,0.0,0 STARLINK-3741,1 52619U 22052X   22312.77971748  .00001160  00000-0  90999-4 0  9992,2 52619  53.2178 332.0507 0002441  30.5841 329.5293 15.08843580 27276,6917.869000000002,95.437,541.423,538.0459999999998,0.0
52619.0,STARLINK-3741,PAYLOAD,2022-11-09 09:01:15,15.08852429,0.0002614,53.2178,329.3755,32.6662,327.4492,0.00028991,4.33e-05,0.0,0 STARLINK-3741,1 52619U 22052X   22313.37587445  .00004330  00000-0  28991-3 0  9990,2 52619  53.2178 329.3755 0002614  32.6662 327.4492 15.08852429 27366,6917.842,95.437,541.516,537.899,0.0
52619.0,STARLINK-3741,PAYLOAD,2022-11-09 18:33:34,15.08846477,0.0002711,53.2176,327.5912,33.8201,326.2964,0.00011578,1.555e-05,0.0,0 STARLINK-3741,1 52619U 22052X   22313.77331537  .00001555  00000-0  11578-3 0  9992,2 52619  53.2176 327.5912 0002711  33.8201 326.2964 15.08846477 27805,6917.861,95.437,541.601,537.85,0.0
52619.0,STARLINK-3741,PAYLOAD,2022-11-10 12:02:48,15.08843946,0.0002506,53.2183,324.32,33.7735,326.3417,-5.0569e-05,-1.093e-05,0.0,0 STARLINK-3741,1 52619U 22052X   22314.50195550 -.00001093  00000-0 -50569-4 0  9990,2 52619  53.2183 324.3200 0002506  33.7735 326.3417 15.08843946 27533,6917.868,95.437,541.467,538.0,0.0
52619.0,STARLINK-3741,PAYLOAD,2022-11-11 11:53:35,15.08845963,0.0002528,53.219,319.86,32.2973,327.8174,4.755e-05,4.69e-06,0.0,0 STARLINK-3741,1 52619U 22052X   22315.49555245  .00000469  00000-0  47550-4 0  9990,2 52619  53.2190 319.8600 0002528  32.2973 327.8174 15.08845963 27689,6917.861999999999,95.437,541.476,537.9780000000002,0.0
52619.0,STARLINK-3741,PAYLOAD,2022-11-12 02:12:04,15.08841275,0.0002566,53.2189,317.1835,31.1509,328.9634,4.8005e-05,4.76e-06,0.0,0 STARLINK-3741,1 52619U 22052X   22316.09171542  .00000476  00000-0  48005-4 0  9995,2 52619  53.2189 317.1835 0002566  31.1509 328.9634 15.08841275 28151,6917.876,95.437,541.5169999999998,537.966,0.0
52619.0,STARLINK-3741,PAYLOAD,2022-11-12 10:09:00,15.08834779,0.0002501,53.2189,315.697,28.0095,332.1032,5.6487e-05,6.11e-06,0.0,0 STARLINK-3741,1 52619U 22052X   22316.42292004  .00000611  00000-0  56487-4 0  9993,2 52619  53.2189 315.6970 0002501  28.0095 332.1032 15.08834779 28204,6917.896,95.438,541.492,538.031,0.0
52619.0,STARLINK-3741,PAYLOAD,2022-11-13 09:59:47,15.08834459,0.0002527,53.2188,311.2369,27.8459,332.2668,2.507e-05,1.11e-06,0.0,0 STARLINK-3741,1 52619U 22052X   22317.41652112  .00000111  00000-0  25070-4 0  9992,2 52619  53.2188 311.2369 0002527  27.8459 332.2668 15.08834459 27970,6917.897,95.438,541.51,538.014,0.0
52619.0,STARLINK-3741,PAYLOAD,2022-11-14 08:15:12,15.08828376,0.000268,53.2186,307.0737,24.6692,335.4428,-6.1253e-05,-1.263e-05,0.0,0 STARLINK-3741,1 52619U 22052X   22318.34389169 -.00001263  00000-0 -61253-4 0  9998,2 52619  53.2186 307.0737 0002680  24.6692 335.4428 15.08828376 28492,6917.916,95.438,541.635,537.927,0.0
52619.0,STARLINK-3741,PAYLOAD,2022-11-14 16:12:07,15.08830404,0.0002587,53.2188,305.5869,28.1025,332.0107,5.3874e-05,5.69e-06,0.0,0 STARLINK-3741,1 52619U 22052X   22318.67508901  .00000569  00000-0  53874-4 0  9997,2 52619  53.2188 305.5869 0002587  28.1025 332.0107 15.08830404 28164,6917.91,95.438,541.564,537.985,0.0
52619.0,STARLINK-3741,PAYLOAD,2022-11-14 22:33:40,15.08836693,0.0002432,53.2189,304.3968,26.4571,333.6545,1.3079e-05,-8e-07,0.0,0 STARLINK-3741,1 52619U 22052X   22318.94004639 -.00000080  00000-0  13079-4 0  9998,2 52619  53.2189 304.3968 0002432  26.4571 333.6545 15.08836693 28583,6917.89,95.438,541.438,538.073,0.0
